NORAD_CAT_ID,OBJECT_NAME,OBJECT_TYPE,EPOCH,MEAN_MOTION,ECCENTRICITY,INCLINATION,RA_OF_ASC_NODE,ARG_OF_PERICENTER,MEAN_ANOMALY,BSTAR,MEAN_MOTION_DOT,MEAN_MOTION_DDOT,TLE_LINE0,TLE_LINE1,TLE_LINE2,SEMIMAJOR_AXIS,PERIOD,APOGEE,PERIGEE,DECAYED
54003.0,STARLINK-5114,PAYLOAD,2024-05-07 20:45:46,15.08839278,0.0001186,53.2148,345.3689,91.5336,268.5792,0.00050795,7.805e-05,0.0,0 STARLINK-5114,1 54003U 22125AR  24128.86511736  .00007805  00000-0  50795-3 0  9997,2 54003  53.2148 345.3689 0001186  91.5336 268.5792 15.08839278 88240,6917.883,95.438,540.568,538.927,0.0
54003.0,STARLINK-5114,PAYLOAD,2024-05-08 04:42:42,15.08831391,0.0001092,53.2157,343.8833,92.3944,267.7173,0.00081824,0.00012755,0.0,0 STARLINK-5114,1 54003U 22125AR  24129.19632208  .00012755  00000-0  81824-3 0  9999,2 54003  53.2157 343.8833 0001092  92.3944 267.7173 15.08831391 88291,6917.907,95.438,540.527,539.016,0.0
54003.0,STARLINK-5114,PAYLOAD,2024-05-08 14:15:01,15.08828989,0.0001065,53.217,342.0991,85.7482,274.3632,0.00054224,8.35e-05,0.0,0 STARLINK-5114,1 54003U 22125AR  24129.59376790  .00008350  00000-0  54224-3 0  9994,2 54003  53.2170 342.0991 0001065  85.7482 274.3632 15.08828989 88300,6917.914,95.438,540.516,539.042,0.0
54003.0,STARLINK-5114,PAYLOAD,2024-05-08 20:36:34,15.0883619,0.0001112,53.2164,340.9094,84.5899,275.522,0.00071233,0.00011066,0.0,0 STARLINK-5114,1 54003U 22125AR  24129.85872890  .00011066  00000-0  71233-3 0  9992,2 54003  53.2164 340.9094 0001112  84.5899 275.5220 15.08836190 88394,6917.892,95.438,540.526,538.988,0.0
54003.0,STARLINK-5114,PAYLOAD,2024-05-09 04:33:29,15.08841917,0.0001094,53.2162,339.4226,89.3528,270.759,0.001145,0.00017983,0.0,0 STARLINK-5114,1 54003U 22125AR  24130.18993023  .00017983  00000-0  11450-2 0  9990,2 54003  53.2162 339.4226 0001094  89.3528 270.7590 15.08841917 88393,6917.875,95.437,540.496,538.983,0.0
54003.0,STARLINK-5114,PAYLOAD,2024-05-09 20:27:20,15.08876834,0.000101,53.2169,336.4483,89.9044,270.2064,0.0022997,0.00036539,0.0,0 STARLINK-5114,1 54003U 22125AR  24130.85232305  .00036539  00000-0  22997-2 0  9999,2 54003  53.2169 336.4483 0001010  89.9044 270.2064 15.08876834 88497,6917.768,95.435,540.331,538.934,0.0
54003.0,STARLINK-5114,PAYLOAD,2024-05-10 04:24:16,15.08855077,0.000148,53.2168,334.9632,56.3954,303.7179,0.00070712,0.00010988,0.0,0 STARLINK-5114,1 54003U 22125AR  24131.18352417  .00010988  00000-0  70712-3 0  9992,2 54003  53.2168 334.9632 0001480  56.3954 303.7179 15.08855077 88590,6917.834,95.437,540.723,538.675,0.0
54003.0,STARLINK-5114,PAYLOAD,2024-05-10 13:56:34,15.08857821,0.0001013,53.2168,333.1772,99.4816,260.6291,0.0012491,0.00019657,0.0,0 STARLINK-5114,1 54003U 22125AR  24131.58095971  .00019657  00000-0  12491-2 0  9996,2 54003  53.2168 333.1772 0001013  99.4816 260.6291 15.08857821 88600,6917.826,95.436,540.392,538.99,0.0
54003.0,STARLINK-5114,PAYLOAD,2024-05-10 21:53:30,15.08886422,9.39e-05,53.2168,331.6905,98.6772,261.4326,0.003387,0.00054099,0.0,0 STARLINK-5114,1 54003U 22125AR  24131.91215445  .00054099  00000-0  33870-2 0  9996,2 54003  53.2168 331.6905 0000939  98.6772 261.4326 15.08886422 88651,6917.738,95.435,540.253,538.954,0.0
54003.0,STARLINK-5114,PAYLOAD,2024-05-11 20:08:51,15.08851965,0.0001674,53.2173,327.5266,69.7162,290.401,-0.0020268,-0.00032411,0.0,0 STARLINK-5114,1 54003U 22125AR  24132.83948924 -.00032411  00000-0 -20268-2 0  9996,2 54003  53.2173 327.5266 0001674  69.7162 290.4010 15.08851965 88847,6917.844,95.437,540.867,538.551,0.0
54003.0,STARLINK-5114,PAYLOAD,2024-05-11 21:44:15,15.08845917,0.0001719,53.2172,327.2292,66.3876,293.7296,-0.0021046,-0.00033632,0.0,0 STARLINK-5114,1 54003U 22125AR  24132.90572943 -.00033632  00000-0 -21046-2 0  9999,2 54003  53.2172 327.2292 0001719  66.3876 293.7296 15.08845917 88805,6917.862,95.437,540.916,538.538,0.0
54003.0,STARLINK-5114,PAYLOAD,2024-05-11 23:19:38,15.08827814,0.0001832,53.2174,326.9321,84.5875,275.5326,-0.0028155,-0.00044804,0.0,0 STARLINK-5114,1 54003U 22125AR  24132.97197231 -.00044804  00000-0 -28155-2 0  9990,2 54003  53.2174 326.9321 0001832  84.5875 275.5326 15.08827814 88867,6917.918,95.438,541.05,538.515,0.0
54003.0,STARLINK-5114,PAYLOAD,2024-05-12 05:41:12,15.08770723,0.0001589,53.2171,325.7424,93.4669,266.6505,-0.0029695,-0.00047149,0.0,0 STARLINK-5114,1 54003U 22125AR  24133.23694735 -.00047149  00000-0 -29695-2 0  9996,2 54003  53.2171 325.7424 0001589  93.4669 266.6505 15.08770723 88905,6918.092,95.442,541.056,538.858,0.0
54003.0,STARLINK-5114,PAYLOAD,2024-05-12 19:59:43,15.08785661,0.0001432,53.2169,323.0682,93.399,266.7166,0.0032696,0.00052054,0.0,0 STARLINK-5114,1 54003U 22125AR  24133.83314577  .00052054  00000-0  32696-2 0  9999,2 54003  53.2169 323.0682 0001432  93.3990 266.7166 15.08785661 88992,6918.046,95.441,540.902,538.921,0.0
54003.0,STARLINK-5114,PAYLOAD,2024-05-13 05:32:03,15.08828481,0.0002173,53.2174,321.2845,90.5947,269.5294,0.0037503,0.00059887,0.0,0 STARLINK-5114,1 54003U 22125AR  24134.23059483  .00059887  00000-0  37503-2 0  9999,2 54003  53.2174 321.2845 0002173  90.5947 269.5294 15.08828481 89007,6917.916,95.438,541.284,538.277,0.0
54003.0,STARLINK-5114,PAYLOAD,2024-05-13 21:25:53,15.08869821,0.0001325,53.2167,318.3082,97.4494,262.6649,0.0020573,0.00032633,0.0,0 STARLINK-5114,1 54003U 22125AR  24134.89298600  .00032633  00000-0  20573-2 0  9996,2 54003  53.2167 318.3082 0001325  97.4494 262.6649 15.08869821 89102,6917.789,95.436,540.571,538.738,0.0
54003.0,STARLINK-5114,PAYLOAD,2024-05-14 11:44:21,15.08884561,0.0001255,53.2144,315.6328,96.3325,263.781,0.00147,0.00023213,0.0,0 STARLINK-5114,1 54003U 22125AR  24135.48913461  .00023213  00000-0  14700-2 0  9990,2 54003  53.2144 315.6328 0001255  96.3325 263.7810 15.08884561 89248,6917.744,95.435,540.477,538.741,0.0
54003.0,STARLINK-5114,PAYLOAD,2024-05-14 18:05:53,15.08893119,0.0001249,53.2152,314.4431,94.3197,265.7937,0.0015708,0.00024836,0.0,0 STARLINK-5114,1 54003U 22125AR  24135.75408690  .00024836  00000-0  15708-2 0  9994,2 54003  53.2152 314.4431 0001249  94.3197 265.7937 15.08893119 89237,6917.718,95.434,540.447,538.719,0.0
54003.0,STARLINK-5114,PAYLOAD,2024-05-15 11:35:07,15.08844168,0.0001802,53.2138,311.1716,79.8379,280.2816,0.00058912,9.101e-05,0.0,0 STARLINK-5114,1 54003U 22125AR  24136.48272550  .00009101  00000-0  58912-3 0  9992,2 54003  53.2138 311.1716 0001802  79.8379 280.2816 15.08844168 89391,6917.868,95.437,540.979,538.486,0.0
54003.0,STARLINK-5114,PAYLOAD,2024-05-15 17:56:39,15.08850438,0.0001416,53.2159,309.983,70.6085,289.506,0.00031986,4.808e-05,0.0,0 STARLINK-5114,1 54003U 22125AR  24136.74768383  .00004808  00000-0  31986-3 0  9996,2 54003  53.2159 309.9830 0001416  70.6085 289.5060 15.08850438 89389,6917.848,95.437,540.693,538.734,0.0
54003.0,STARLINK-5114,PAYLOAD,2024-05-16 05:04:22,15.08842758,0.0001545,53.2163,307.8998,78.3698,281.7468,0.0011493,0.00018052,0.0,0 STARLINK-5114,1 54003U 22125AR  24137.21136781  .00018052  00000-0  11493-2 0  9996,2 54003  53.2163 307.8998 0001545  78.3698 281.7468 15.08842758 89500,6917.872,95.437,540.806,538.668,0.0
54003.0,STARLINK-5114,PAYLOAD,2024-05-16 11:25:54,15.08848888,0.0001523,53.2167,306.7086,96.656,263.4605,0.00077234,0.00012028,0.0,0 STARLINK-5114,1 54003U 22125AR  24137.47632675  .00012028  00000-0  77234-3 0  9990,2 54003  53.2167 306.7086 0001523  96.6560 263.4605 15.08848888 89495,6917.853,95.437,540.772,538.665,0.0
54003.0,STARLINK-5114,PAYLOAD,2024-05-16 17:47:26,15.08871456,0.0001752,53.2184,305.5214,85.2285,274.8907,0.0014865,0.00023469,0.0,0 STARLINK-5114,1 54003U 22125AR  24137.74128260  .00023469  00000-0  14865-2 0  9991,2 54003  53.2184 305.5214 0001752  85.2285 274.8907 15.08871456 89539,6917.784,95.436,540.861,538.437,0.0
54003.0,STARLINK-5114,PAYLOAD,2024-05-17 11:16:42,15.08835157,9.93e-05,53.2158,302.2508,15.0374,345.0647,0.00043335,6.615e-05,0.0,0 STARLINK-5114,1 54003U 22125AR  24138.46993296  .00006615  00000-0  43335-3 0  9999,2 54003  53.2158 302.2508 0000993  15.0374 345.0647 15.08835157 89693,6917.895,95.438,540.447,539.073,0.0
54003.0,STARLINK-5114,PAYLOAD,2024-05-17 17:38:14,15.08824371,0.0001273,53.216,301.0613,86.4717,273.6421,3.2818e-05,2.34e-06,0.0,0 STARLINK-5114,1 54003U 22125AR  24138.73489532  .00000234  00000-0  32818-4 0  9998,2 54003  53.2160 301.0613 0001273  86.4717 273.6421 15.08824371 89686,6917.928,95.439,540.674,538.913,0.0
54003.0,STARLINK-5114,PAYLOAD,2024-05-18 11:07:29,15.0885896,0.0002378,53.215,297.7868,94.2313,265.8951,0.0014515,0.00022901,0.0,0 STARLINK-5114,1 54003U 22125AR  24139.46353442  .00022901  00000-0  14515-2 0  9996,2 54003  53.2150 297.7868 0002378  94.2313 265.8951 15.08858960 89844,6917.822,95.436,541.332,538.042,0.0
54003.0,STARLINK-5114,PAYLOAD,2024-05-18 14:18:15,15.08879843,9.98e-05,53.2152,297.1952,81.2339,278.8766,0.0019767,0.00031346,0.0,0 STARLINK-5114,1 54003U 22125AR  24139.59601000  .00031346  00000-0  19767-2 0  9993,2 54003  53.2152 297.1952 0000998  81.2339 278.8766 15.08879843 89812,6917.759,95.435,540.314,538.933,0.0
54003.0,STARLINK-5114,PAYLOAD,2024-05-18 17:29:01,15.08898798,9.22e-05,53.2147,296.6006,80.1208,279.9889,0.0025106,0.00039959,0.0,0 STARLINK-5114,1 54003U 22125AR  24139.72848466  .00039959  00000-0  25106-2 0  9999,2 54003  53.2147 296.6006 0000922  80.1208 279.9889 15.08898798 89885,6917.701,95.434,540.203,538.928,0.0
54003.0,STARLINK-5114,PAYLOAD,2024-05-19 03:01:18,15.08911301,0.0001453,53.2142,294.8143,333.4501,26.6417,0.0016727,0.00026486,0.0,0 STARLINK-5114,1 54003U 22125AR  24140.12590959  .00026486  00000-0  16727-2 0  9996,2 54003  53.2142 294.8143 0001453 333.4501  26.6417 15.08911301 89949,6917.662,95.433,540.533,538.522,0.0
54003.0,STARLINK-5114,PAYLOAD,2024-05-19 14:09:01,15.08820685,0.0001129,53.2158,292.7356,62.4446,297.6661,0.00026531,3.935e-05,0.0,0 STARLINK-5114,1 54003U 22125AR  24140.58960576  .00003935  00000-0  26531-3 0  9991,2 54003  53.2158 292.7356 0001129  62.4446 297.6661 15.08820685 89963,6917.939,95.439,540.585,539.023,0.0
